[{"OBJECT_NAME":"STARLINK-31507","OBJECT_ID":"2024-064D","EPOCH":"2026-03-08T07:00:51.471360","MEAN_MOTION":15.2758917,"ECCENTRICITY":0.00011456,"INCLINATION":43.0025,"RA_OF_ASC_NODE":63.9239,"ARG_OF_PERICENTER":276.0701,"MEAN_ANOMALY":84.002,"EPHEMERIS_TYPE":0,"CLASSIFICATION_TYPE":"U","NORAD_CAT_ID":59401,"ELEMENT_SET_NO":999,"REV_AT_EPOCH":10895,"BSTAR":8.7352732e-5,"MEAN_MOTION_DOT":2.143e-5,"MEAN_MOTION_DDOT":0},{"OBJECT_NAME":"KUIPER-00266","OBJECT_ID":"2026-030AB","EPOCH":"2026-03-08T21:54:37.698048","MEAN_MOTION":15.30874235,"ECCENTRICITY":0.0022313,"INCLINATION":51.8807,"RA_OF_ASC_NODE":223.5904,"ARG_OF_PERICENTER":72.5291,"MEAN_ANOMALY":287.8129,"EPHEMERIS_TYPE":0,"CLASSIFICATION_TYPE":"U","NORAD_CAT_ID":67789,"ELEMENT_SET_NO":999,"REV_AT_EPOCH":496,"BSTAR":0.00098219753,"MEAN_MOTION_DOT":0.00029701,"MEAN_MOTION_DDOT":0}]
